Drive,Livraison,address,city,name,postalcode
Lundi 6 entre 13h00 et 14h00,Mardi 7 entre 10h00 et 12h00,RTE DE VALLON PONT DARC,RUOMS,Super U RUOMS,07120
Lundi 6 entre 08h00 et 09h00,Lundi 6 entre 11h00 et 12h00,LOTIS.INDUST.DE LA PALISSE,LE CHEYLARD,Super U LE CHEYLARD,07160
Lundi 6 entre 09h00 et 10h00,Lundi 6 entre 11h00 et 12h00,ZI DE LA SUMENE,LAMASTRE,Super U LAMASTRE,07270
Lundi 6 entre 07h30 et 08h00,Lundi 6 entre 09h00 et 10h00,QUARTIER CLE DU SAC,ALISSAS PAR PRIVAS,Super U ALISSAS,07210
Lundi 6 entre 07h30 et 08h00,Lundi 6 entre 10h00 et 11h00,50 AVENUE DE L EUROPE,ANNONAY,Super U ANNONAY,07100
Lundi 6 entre 09h00 et 10h00,,rue du 11 Novembre,SURY LE COMTAL,Super U SURY LE COMTAL,42450
Lundi 6 entre 10h00 et 11h00,,Le Grand Guéret,LA TOURETTE,Super U LA TOURETTE,42380
Lundi 6 entre 08h30 et 09h00,Lundi 6 entre 14h00 et 15h00,1033 RUE DU COMMERCE,PERREUX,Super U PERREUX,42120
Lundi 6 entre 08h30 et 09h00,Lundi 6 entre 09h00 et 10h00,Route de Lyon,SAVIGNEUX,Super U SAVIGNEUX,42600
Mardi 7 entre 09h00 et 10h00,Mardi 7 entre 09h00 et 10h00,50 BOULEVARD NORMANDIE NIEMEN,SAINT ETIENNE,U Express ST ETIENNE,42000
Lundi 6 entre 09h00 et 10h00,Lundi 6 entre 10h00 et 11h00,38 TER AVENUE PASTEUR,L'HORME,Super U L'HORME,42152
Lundi 6 entre 09h00 et 10h00,Mardi 7 entre 16h00 et 17h00,Zac de la Tuilerie,VILLARS LES DOMBES,Super U VILLARS LES DOMBES,01330
Lundi 6 entre 08h00 et 09h00,Lundi 6 entre 09h00 et 10h00,AVENUE DE LA LIBERATION,SAINT DIDIER SUR CHALARONNE,U Express ST DIDIER SUR CHALARONN,01140
Lundi 6 entre 09h00 et 10h00,Lundi 6 entre 08h30 et 09h30,254 ROUTE DE CHÂTILLON,LAIZ,Super U LAIZ,01290
Lundi 6 entre 09h30 et 10h00,Lundi 6 entre 09h00 et 11h00,LIEU DIT AUX TARPETS,PONT D'AIN,Super U PONT D'AIN,01160
Lundi 6 entre 09h00 et 10h00,Lundi 6 entre 08h00 et 09h00,16 COURS DE LA PORTELLE,MONTLUEL,Super U MONTLUEL,01120
Lundi 6 entre 09h00 et 09h30,,ZAC DES COUSTILLES,ST GERMAIN LEMBRON,Super U ST GERMAIN LEMBRON,63340
Lundi 6 entre 09h00 et 10h00,Mercredi 8 entre 14h00 et 15h00,24 AVENUE DE LYON,PONT DU CHATEAU,Super U PONT DU CHATEAU,63430
Lundi 6 entre 08h00 et 09h00,Lundi 6 entre 09h30 et 11h30,ZAC DES MEULES 2,VIC LE COMTE,Super U VIC LE COMTE,63270
Lundi 6 entre 09h00 et 10h00,Lundi 6 entre 09h00 et 10h00,Route Beurrière,ARLANC,Super U ARLANC,63220
Lundi 6 entre 09h00 et 10h00,,AVENUE DE LA REPUBLIQUE,YDES,Super U YDES,15210
Lundi 6 entre 08h30 et 09h00,Mardi 7 entre 14h00 et 16h00,Route des Arcs,BOURG ST MAURICE CEDEX,Super U BOURG ST MAURICE,73704
Lundi 6 entre 09h30 et 10h00,Lundi 6 entre 11h00 et 12h00,Rue du pré Renaud,LA RAVOIRE,Super U LA RAVOIRE,73490
Lundi 6 entre 08h30 et 10h00,Lundi 6 entre 14h00 et 15h00,ZONE ARTISANALE DE SAUMONT,RUFFIEUX,U Express RUFFIEUX,73310
Lundi 6 entre 08h30 et 09h00,Lundi 6 entre 09h00 et 10h00,Centre Commercial,COGNIN,Super U COGNIN,73160
Lundi 6 entre 08h30 et 09h00,Lundi 6 entre 09h00 et 10h00,42 AVENUE DANNECY,CHAMBERY LE HAUT,Super U CHAMBERY LE HAUT,73000
Lundi 6 entre 08h30 et 09h00,Lundi 6 entre 11h00 et 13h00,Zone des Moulins,SALINS LES THERMES,Super U SALINS LES THERMES,73600
Lundi 6 entre 08h00 et 09h00,Mardi 7 entre 10h00 et 12h00,ZAC DE LA PETITE PRAIRIE,AIGUEBLANCHE,Super U AIGUEBLANCHE,73260
Lundi 6 entre 08h30 et 09h00,Lundi 6 entre 08h30 et 09h30,Le Boisset Francin,MONTMELIAN,Super U MONTMELIAN,73800
Lundi 6 entre 09h00 et 10h00,Lundi 6 entre 15h00 et 16h00,Route de lEnergie,LA BATHIE,Super U LA BATHIE,73540
Lundi 6 entre 08h00 et 09h00,Lundi 6 entre 09h00 et 11h00,ZONE INDUSTRIELLE DE MA BARONNIE,PONT DE BEAUVOISIN,Hyper U PONT DE BEAUVOISIN,73330
Lundi 6 entre 08h00 et 09h00,Lundi 6 entre 08h00 et 09h00,75 rue Lavoisier,LA MOTTE SERVOLEX,Super U LA MOTTE SERVOLEX,73290
Lundi 6 entre 08h30 et 10h00,,CD 925,DETRIER,Super U DETRIER LA ROCHETTE,73110
Lundi 6 entre 09h00 et 10h00,,-,YSSINGEAUX,Super U YSSINGEAUX,43200
Lundi 6 entre 09h30 et 10h00,Mardi 7 entre 12h00 et 13h00,Route dAuvergne,LANGEAC,Super U LANGEAC,43300
Lundi 6 entre 08h30 et 10h00,,24 RUE DOLLIAS,CRAPONNE SUR ARZON,Super U CRAPONNE SUR ARZON,43500
Lundi 6 entre 08h00 et 09h00,Lundi 6 entre 09h00 et 10h00,1 Chemin de Jalavoux,AIGUILHE,Super U AIGUILHE,43000
Lundi 6 entre 10h00 et 11h00,Lundi 6 entre 10h00 et 11h00,40 RUE LES CLUS,MARIGNIER,Super U MARIGNIER,74970
Lundi 6 entre 08h00 et 09h00,Lundi 6 entre 09h00 et 11h00,RUE DE LEGLISE,ST JORIOZ,Super U ST JORIOZ,74410
Lundi 6 entre 08h30 et 09h00,,93 ROUTE DE LA RAVOIRE,PRINGY,Super U PRINGY,74370
Lundi 6 entre 08h00 et 09h00,Lundi 6 entre 10h30 et 12h30,91 AVENUE DE MARLIOZ,PASSY,Super U PASSY,74190
Lundi 6 entre 09h00 et 10h00,Lundi 6 entre 10h00 et 11h00,CENTRE COMMERCIAL LES 2 LACS,RUMILLY,Hyper U RUMILLY,74150
Lundi 6 entre 08h30 et 09h30,,Parc dactiv. de la MENOGE,BONNE,Super U BONNE,74380
Lundi 6 entre 09h00 et 10h00,Lundi 6 entre 08h30 et 10h30,180 ALLEE DES NOYERES,MAGLAND,Super U MAGLAND,74300
Lundi 6 entre 11h00 et 12h00,Lundi 6 entre 17h00 et 18h00,RUE CHARLET STRATTON,ARGENTIERE,Marché U CHAMONIX ARGENTIERE,74400
Lundi 6 entre 09h00 et 10h00,Lundi 6 entre 09h00 et 10h00,117 rue Joseph Vallot,CHAMONIX,Super U CHAMONIX VALLOT,74400
Lundi 6 entre 16h00 et 17h00,,C.C.LES PÈLERINS,CHAMONIX,U Express CHAMONIX PELERINS,74400
Lundi 6 entre 18h00 et 19h00,Lundi 6 entre 12h00 et 13h00,Le Borgeat,LES HOUCHES,Super U LES HOUCHES,74310
Lundi 6 entre 14h30 et 15h00,Lundi 6 entre 11h00 et 13h00,267 ROUTE DE VERS LES GRANGES,VINZIER,Super U VINZIER,74500
Lundi 6 entre 09h30 et 10h00,,45 ROUTE DE LA CAILLE,ALLONZIER LA CAILLE,U Express ALLONZIER LA CAILLE,74350
Lundi 6 entre 08h30 et 09h30,Lundi 6 entre 08h30 et 09h30,RD 1206,LOISIN,Super U LOISIN,74140
Lundi 6 entre 10h00 et 11h00,Lundi 6 entre 11h00 et 13h00,182 Route dAnnemasse,TANINGES,Super U TANINGES,74440
